GPS BIIRM-2 (PRN 31)    
1 29486U 06042A   26087.96304715  .00000002  00000+0  00000+0 0  9999
2 29486  54.6992 154.5249 0106360  53.1327 118.3397  2.00574181142785
